{"fetched_at":"2026-03-29T16:36:15Z","count":15609,"tles":[{"name":"STARLINK-36876","line1":"1 67902U 26035Z   26087.77512885  .00231318  00000+0  15056-2 0  9992","line2":"2 67902  97.2868  21.2017 0001069  82.3062 277.8324 15.75259078  6857","category":"Starlink"}]}